OBJECT_NAME,OBJECT_ID,EPOCH,MEAN_MOTION,ECCENTRICITY,INCLINATION,RA_OF_ASC_NODE,ARG_OF_PERICENTER,MEAN_ANOMALY,EPHEMERIS_TYPE,CLASSIFICATION_TYPE,NORAD_CAT_ID,ELEMENT_SET_NO,REV_AT_EPOCH,BSTAR,MEAN_MOTION_DOT,MEAN_MOTION_DDOT
KUZGTU 1 (RS47S),2023-091AV,2026-06-25T12:52:45.914592,15.30036915,.00119597,97.5068,241.1017,72.1533,288.1010,0,U,57217,999,16565,.56509666E-3,.16404E-3,0
SONATE-2,2024-043Q,2026-06-25T10:02:26.166624,15.59304758,.0007289,97.5532,327.3230,168.5917,191.5506,0,U,59112,999,12917,.61196516E-3,.48297E-3,0
MESAT1,2024-125G,2026-06-25T13:17:39.266880,15.64085809,.00104412,97.2283,34.2314,174.3816,185.7563,0,U,60209,999,11087,.73654994E-3,.70199E-3,0
OOV-CUBE (TUBSAT-30),2024-128F,2026-06-25T08:56:48.002784,15.02800403,.00436154,61.9924,197.0293,135.5897,224.8705,0,U,60240,999,10734,.13378427E-3,.1619E-4,0
COLIBRI-S (RS67S),2024-199M,2026-06-25T12:44:05.294112,15.48043782,.00065162,97.2988,50.4623,237.7604,122.3016,0,U,61746,999,13870,.50590228E-3,.26458E-3,0
HORS 3 (RS81S),2024-199U,2026-06-25T13:58:58.038816,15.55523523,.00042731,97.2973,52.5931,229.2997,130.7887,0,U,61753,999,13886,.68583168E-3,.46986E-3,0
HORS 4 (RS82S),2024-199V,2026-06-25T12:25:04.614528,15.60431395,.00042362,97.2919,53.7825,212.8460,147.2534,0,U,61754,999,13894,.7627365E-3,.62917E-3,0
SIT-2086,2024-199AF,2026-06-25T13:42:19.392192,15.53633994,.00055536,97.2933,53.0289,212.2204,147.8711,0,U,61764,999,13573,.74704533E-3,.478E-3,0
HYPERVIEW 1G (RS66S),2024-199AP,2026-06-25T12:03:51.517440,15.78129914,.00057429,97.2857,56.6549,189.7331,170.3825,0,U,61772,999,13598,.11834573E-2,.205702E-2,0
ALTAIR (RS65S),2024-199AW,2026-06-25T13:48:06.604416,15.37167912,.0010755,97.3028,45.8711,276.1037,83.8982,0,U,61779,999,13840,.39937391E-3,.14489E-3,0
ASRTU-1 (AO-123),2024-199AY,2026-06-25T13:41:20.956416,15.35786960,.00119033,97.2998,45.1658,279.7107,80.2793,0,U,61781,999,13521,.26856695E-3,.9292E-4,0
SAMSAT-IONOSPHERE (RS75S),2024-199BB,2026-06-25T12:54:19.884096,15.58329664,.00065521,97.2940,52.6247,233.9841,126.0809,0,U,61784,999,13886,.72331776E-3,.5508E-3,0
RTU MIREA 1 (RS51S),2024-199BC,2026-06-25T13:02:13.961760,15.61963529,.00064694,97.2928,53.5060,225.5330,134.5400,0,U,61785,999,13577,.79478644E-3,.69629E-3,0
TEVEL2-4,2025-052D,2026-06-25T04:50:37.476960,15.34868529,.00049239,97.3900,72.6073,88.3722,271.8086,0,U,63213,999,7134,.6683709E-3,.22567E-3,0
TEVEL2-5,2025-052E,2026-06-24T10:34:45.401664,15.34655456,.00048908,97.3897,71.7905,91.0395,269.1409,0,U,63214,999,7122,.49860982E-3,.16688E-3,0
TEVEL2-6,2025-052F,2026-06-24T10:52:45.082848,15.34620549,.0004713,97.3903,71.7876,91.5170,268.6613,0,U,63215,999,7122,.50673189E-3,.16943E-3,0
TEVEL2-1,2025-052H,2026-06-24T05:22:29.921088,15.34073550,.00049566,97.3870,71.1740,99.7997,260.3806,0,U,63217,999,7117,.56391833E-3,.18544E-3,0
TEVEL2-3,2025-052J,2026-06-25T12:32:53.069280,15.34185056,.00048604,97.3879,72.4962,97.9247,262.2548,0,U,63218,999,7137,.69302448E-3,.22901E-3,0
TEVEL2-2,2025-052K,2026-06-25T11:07:29.716032,15.34132985,.0005023,97.3875,72.4167,98.1583,262.0230,0,U,63219,999,7136,.66880812E-3,.2206E-3,0
TEVEL2-9,2025-052AD,2026-06-25T12:24:29.975040,15.32134443,.00082858,97.3939,71.8272,108.4193,251.7951,0,U,63237,999,7130,.66309767E-3,.20548E-3,0
TEVEL2-7,2025-052AE,2026-06-25T11:51:40.042080,15.31832476,.00083821,97.3941,71.7171,108.6709,251.5443,0,U,63238,999,7129,.64363543E-3,.19754E-3,0
TEVEL2-8,2025-052AF,2026-06-25T12:03:40.075488,15.31817994,.00083891,97.3938,71.7020,109.3635,250.8514,0,U,63239,999,7129,.65814876E-3,.20193E-3,0
INNOSAT 16 (RS92S7),2025-155C,2026-06-25T12:42:16.398144,15.25537520,.00115186,97.4562,143.6306,147.7676,212.4268,0,U,64878,999,8194,.26013079E-3,.6535E-4,0
GEOSCAN 6 (RS92S6),2025-155D,2026-06-25T11:40:24.956544,15.30294214,.00092865,97.4553,145.0708,137.1618,223.0347,0,U,64879,999,8203,.42606978E-3,.12431E-3,0
GEOSCAN 1 (RS92S1),2025-155E,2026-06-25T11:39:14.821344,15.30904822,.00092337,97.4549,145.2252,137.0344,223.1620,0,U,64880,999,8204,.45581818E-3,.13561E-3,0
239ALFEROV (RS61S),2025-155F,2026-06-25T12:12:16.082208,15.33147152,.00089577,97.4550,145.8377,135.0604,225.1365,0,U,64881,999,8208,.53847182E-3,.17205E-3,0
GEOSCAN 2 (RS92S2),2025-155Q,2026-06-25T13:02:08.674944,15.31174992,.0008901,97.4548,145.4388,125.5381,234.6692,0,U,64890,999,8206,.43031973E-3,.12903E-3,0
GEOSCAN 5 (RS92S5),2025-155R,2026-06-25T11:53:59.305056,15.33464007,.00077658,97.4542,145.9658,138.3482,221.8353,0,U,64891,999,8209,.54591828E-3,.17614E-3,0
GEOSCAN 4 (RS92S4),2025-155S,2026-06-25T13:03:58.100544,15.33621793,.00078199,97.4545,146.0655,137.7761,222.4085,0,U,64892,999,8210,.53548072E-3,.17362E-3,0
GEOSCAN 3 (RS92S3),2025-155T,2026-06-25T12:49:21.145728,15.35653711,.00078401,97.4533,146.5094,137.0650,223.1207,0,U,64893,999,8213,.6345572E-3,.21974E-3,0
