KUZGTU 1 (RS47S)        
1 57217U 23091AV  26176.53664253  .00016404  00000+0  56510-3 0  9997
2 57217  97.5068 241.1017 0011959  72.1533 288.1010 15.30036915165657
SONATE-2                
1 59112U 24043Q   26176.41835841  .00048297  00000+0  61197-3 0  9993
2 59112  97.5532 327.3230 0007289 168.5917 191.5506 15.59304758129178
MESAT1                  
1 60209U 24125G   26176.55392670  .00070199  00000+0  73655-3 0  9994
2 60209  97.2283  34.2314 0010441 174.3816 185.7563 15.64085809110875
OOV-CUBE (TUBSAT-30)    
1 60240U 24128F   26176.37277781  .00001619  00000+0  13378-3 0  9994
2 60240  61.9924 197.0293 0043615 135.5897 224.8705 15.02800403107349
COLIBRI-S (RS67S)       
1 61746U 24199M   26176.53061683  .00026458  00000+0  50590-3 0  9999
2 61746  97.2988  50.4623 0006516 237.7604 122.3016 15.48043782138702
HORS 3 (RS81S)          
1 61753U 24199U   26176.58261619  .00046986  00000+0  68583-3 0  9992
2 61753  97.2973  52.5931 0004273 229.2997 130.7887 15.55523523138868
HORS 4 (RS82S)          
1 61754U 24199V   26176.51741452  .00062917  00000+0  76274-3 0  9992
2 61754  97.2919  53.7825 0004236 212.8460 147.2534 15.60431395138948
SIT-2086                
1 61764U 24199AF  26176.57105778  .00047800  00000+0  74705-3 0  9995
2 61764  97.2933  53.0289 0005553 212.2204 147.8711 15.53633994135733
HYPERVIEW 1G (RS66S)    
1 61772U 24199AP  26176.50267960  .00205702  00000+0  11835-2 0  9990
2 61772  97.2857  56.6549 0005742 189.7331 170.3825 15.78129914135987
ALTAIR (RS65S)          
1 61779U 24199AW  26176.57507644  .00014489  00000+0  39937-3 0  9994
2 61779  97.3028  45.8711 0010755 276.1037  83.8982 15.37167912138407
ASRTU-1 (AO-123)        
1 61781U 24199AY  26176.57038144  .00009292  00000+0  26857-3 0  9994
2 61781  97.2998  45.1658 0011903 279.7107  80.2793 15.35786960135216
SAMSAT-IONOSPHERE (RS7*)
1 61784U 24199BB  26176.53773014  .00055080  00000+0  72332-3 0  9990
2 61784  97.2940  52.6247 0006552 233.9841 126.0809 15.58329664138864
RTU MIREA 1 (RS51S)     
1 61785U 24199BC  26176.54321715  .00069629  00000+0  79479-3 0  9992
2 61785  97.2928  53.5060 0006469 225.5330 134.5400 15.61963529135777
TEVEL2-4                
1 63213U 25052D   26176.20182265  .00022567  00000+0  66837-3 0  9991
2 63213  97.3900  72.6073 0004923  88.3722 271.8086 15.34868529 71346
TEVEL2-5                
1 63214U 25052E   26175.44080326  .00016688  00000+0  49861-3 0  9997
2 63214  97.3897  71.7905 0004890  91.0395 269.1409 15.34655456 71225
TEVEL2-6                
1 63215U 25052F   26175.45329957  .00016943  00000+0  50673-3 0  9992
2 63215  97.3903  71.7876 0004713  91.5170 268.6613 15.34620549 71227
TEVEL2-1                
1 63217U 25052H   26175.22395742  .00018544  00000+0  56392-3 0  9997
2 63217  97.3870  71.1740 0004956  99.7997 260.3806 15.34073550 71173
TEVEL2-3                
1 63218U 25052J   26176.52283645  .00022901  00000+0  69302-3 0  9997
2 63218  97.3879  72.4962 0004860  97.9247 262.2548 15.34185056 71376
TEVEL2-2                
1 63219U 25052K   26176.46353838  .00022060  00000+0  66881-3 0  9998
2 63219  97.3875  72.4167 0005023  98.1583 262.0230 15.34132985 71366
TEVEL2-9                
1 63237U 25052AD  26176.51701360  .00020548  00000+0  66310-3 0  9997
2 63237  97.3939  71.8272 0008285 108.4193 251.7951 15.32134443 71300
TEVEL2-7                
1 63238U 25052AE  26176.49421345  .00019754  00000+0  64364-3 0  9991
2 63238  97.3941  71.7171 0008382 108.6709 251.5443 15.31832476 71296
TEVEL2-8                
1 63239U 25052AF  26176.50254717  .00020193  00000+0  65815-3 0  9992
2 63239  97.3938  71.7020 0008389 109.3635 250.8514 15.31817994 71298
INNOSAT 16 (RS92S7)     
1 64878U 25155C   26176.52935646  .00006535  00000+0  26013-3 0  9996
2 64878  97.4562 143.6306 0011518 147.7676 212.4268 15.25537520 81947
GEOSCAN 6 (RS92S6)      
1 64879U 25155D   26176.48639996  .00012431  00000+0  42607-3 0  9990
2 64879  97.4553 145.0708 0009286 137.1618 223.0347 15.30294214 82031
GEOSCAN 1 (RS92S1)      
1 64880U 25155E   26176.48558821  .00013561  00000+0  45582-3 0  9999
2 64880  97.4549 145.2252 0009233 137.0344 223.1620 15.30904822 82040
239ALFEROV (RS61S)      
1 64881U 25155F   26176.50851947  .00017205  00000+0  53847-3 0  9990
2 64881  97.4550 145.8377 0008957 135.0604 225.1365 15.33147152 82086
GEOSCAN 2 (RS92S2)      
1 64890U 25155Q   26176.54315596  .00012903  00000+0  43032-3 0  9994
2 64890  97.4548 145.4388 0008901 125.5381 234.6692 15.31174992 82062
GEOSCAN 5 (RS92S5)      
1 64891U 25155R   26176.49582529  .00017614  00000+0  54592-3 0  9998
2 64891  97.4542 145.9658 0007765 138.3482 221.8353 15.33464007 82099
GEOSCAN 4 (RS92S4)      
1 64892U 25155S   26176.54442246  .00017362  00000+0  53548-3 0  9996
2 64892  97.4545 146.0655 0007819 137.7761 222.4085 15.33621793 82103
GEOSCAN 3 (RS92S3)      
1 64893U 25155T   26176.53427252  .00021974  00000+0  63456-3 0  9999
2 64893  97.4533 146.5094 0007840 137.0650 223.1207 15.35653711 82131
